{"type": "FeatureCollection", "features": [ {"type": "Feature", "properties": {"norad_id": 34117, "name": "COSMOS 2251 DEB", "group": "cosmos-2251-debris", "lat": 3.280473253423696, "lon": 136.65889855751772, "alt_km": 793.1903577178173, "timestamp": "2025-12-26T22:28:06.179199+00:00", "meta": {"OBJECT_NAME": "COSMOS 2251 DEB", "OBJECT_ID": "1993-036KN", "EPOCH": "2025-12-26T14:59:08.515968", "MEAN_MOTION": 14.40069653, "ECCENTRICITY": 0.0055181, "INCLINATION": 74.0407, "RA_OF_ASC_NODE": 318.1745, "ARG_OF_PERICENTER": 30.6976, "MEAN_ANOMALY": 329.7387, "EPHEMERIS_TYPE": 0, "CLASSIFICATION_TYPE": "U", "NORAD_CAT_ID": 34117, "ELEMENT_SET_NO": 999, "REV_AT_EPOCH": 88323, "BSTAR": 0.0008014, "MEAN_MOTION_DOT": 2.548e-05, "MEAN_MOTION_DDOT": 0}, "tle": {"line1": "1 34117U 93036KN  25360.62440412  .00002548  00000+0  80140-3 0  9990", "line2": "2 34117  74.0407 318.1745 0055181  30.6976 329.7387 14.40069653883231"}}, "geometry": {"type": "Point", "coordinates": [136.65889855751772, 3.280473253423696]}}, {"type": "Feature", "properties": {"norad_id": 34118, "name": "COSMOS 2251 DEB", "group": "cosmos-2251-debris", "lat": 45.410138405542426, "lon": 23.586707244186517, "alt_km": 576.0928883178985, "timestamp": "2025-12-26T22:28:06.179210+00:00", "meta": {"OBJECT_NAME": "COSMOS 2251 DEB", "OBJECT_ID": "1993-036KP", "EPOCH": "2025-12-26T15:43:15.199392", "MEAN_MOTION": 14.94387982, "ECCENTRICITY": 0.006018, "INCLINATION": 73.9514, "RA_OF_ASC_NODE": 221.1342, "ARG_OF_PERICENTER": 47.7401, "MEAN_ANOMALY": 11.804, "EPHEMERIS_TYPE": 0, "CLASSIFICATION_TYPE": "U", "NORAD_CAT_ID": 34118, "ELEMENT_SET_NO": 999, "REV_AT_EPOCH": 89384, "BSTAR": 0.0014342, "MEAN_MOTION_DOT": 0.00016004, "MEAN_MOTION_DDOT": 0}, "tle": {"line1": "1 34118U 93036KP  25360.65503703  .00016004  00000+0  14342-2 0  9999", "line2": "2 34118  73.9514 221.1342 0060180  47.7401  11.8040 14.94387982893842"}}, "geometry": {"type": "Point", "coordinates": [23.586707244186517, 45.410138405542426]}}, {"type": "Feature", "properties": {"norad_id": 34120, "name": "COSMOS 2251 DEB", "group": "cosmos-2251-debris", "lat": -16.425718509671135, "lon": -173.2252555423165, "alt_km": 790.8201412419066, "timestamp": "2025-12-26T22:28:06.179220+00:00", "meta": {"OBJECT_NAME": "COSMOS 2251 DEB", "OBJECT_ID": "1993-036KR", "EPOCH": "2025-12-26T14:13:31.266336", "MEAN_MOTION": 13.98698575, "ECCENTRICITY": 0.0182568, "INCLINATION": 73.99, "RA_OF_ASC_NODE": 192.225, "ARG_OF_PERICENTER": 16.8495, "MEAN_ANOMALY": 38.527, "EPHEMERIS_TYPE": 0, "CLASSIFICATION_TYPE": "U", "NORAD_CAT_ID": 34120, "ELEMENT_SET_NO": 999, "REV_AT_EPOCH": 86174, "BSTAR": 0.00031006, "MEAN_MOTION_DOT": 4.9e-06, "MEAN_MOTION_DDOT": 0}, "tle": {"line1": "1 34120U 93036KR  25360.59272299  .00000490  00000+0  31006-3 0  9997", "line2": "2 34120  73.9900 192.2250 0182568  16.8495  38.5270 13.98698575861746"}}, "geometry": {"type": "Point", "coordinates": [-173.2252555423165, -16.425718509671135]}}, {"type": "Feature", "properties": {"norad_id": 34121, "name": "COSMOS 2251 DEB", "group": "cosmos-2251-debris", "lat": -29.12876517409046, "lon": -97.95374749126478, "alt_km": 849.3402602559754, "timestamp": "2025-12-26T22:28:06.179231+00:00", "meta": {"OBJECT_NAME": "COSMOS 2251 DEB", "OBJECT_ID": "1993-036KS", "EPOCH": "2025-12-26T15:05:44.340288", "MEAN_MOTION": 13.91982721, "ECCENTRICITY": 0.0241152, "INCLINATION": 73.993, "RA_OF_ASC_NODE": 73.3678, "ARG_OF_PERICENTER": 275.9261, "MEAN_ANOMALY": 198.0674, "EPHEMERIS_TYPE": 0, "CLASSIFICATION_TYPE": "U", "NORAD_CAT_ID": 34121, "ELEMENT_SET_NO": 999, "REV_AT_EPOCH": 85318, "BSTAR": 0.0014117, "MEAN_MOTION_DOT": 2.259e-05, "MEAN_MOTION_DDOT": 0}, "tle": {"line1": "1 34121U 93036KS  25360.62898542  .00002259  00000+0  14117-2 0  9995", "line2": "2 34121  73.9930  73.3678 0241152 275.9261 198.0674 13.91982721853188"}}, "geometry": {"type": "Point", "coordinates": [-97.95374749126478, -29.12876517409046]}}, {"type": "Feature", "properties": {"norad_id": 34122, "name": "COSMOS 2251 DEB", "group": "cosmos-2251-debris", "lat": -54.946511164210946, "lon": -64.60120410904604, "alt_km": 699.0888110830037, "timestamp": "2025-12-26T22:28:06.179241+00:00", "meta": {"OBJECT_NAME": "COSMOS 2251 DEB", "OBJECT_ID": "1993-036KT", "EPOCH": "2025-12-26T17:09:14.970240", "MEAN_MOTION": 14.65207523, "ECCENTRICITY": 0.0085154, "INCLINATION": 74.036, "RA_OF_ASC_NODE": 91.7452, "ARG_OF_PERICENTER": 344.7085, "MEAN_ANOMALY": 167.0548, "EPHEMERIS_TYPE": 0, "CLASSIFICATION_TYPE": "U", "NORAD_CAT_ID": 34122, "ELEMENT_SET_NO": 999, "REV_AT_EPOCH": 88889, "BSTAR": 0.0010714, "MEAN_MOTION_DOT": 6.056e-05, "MEAN_MOTION_DDOT": 0}, "tle": {"line1": "1 34122U 93036KT  25360.71475660  .00006056  00000+0  10714-2 0  9996", "line2": "2 34122  74.0360  91.7452 0085154 344.7085 167.0548 14.65207523888893"}}, "geometry": {"type": "Point", "coordinates": [-64.60120410904604, -54.946511164210946]}}, {"type": "Feature", "properties": {"norad_id": 34127, "name": "COSMOS 2251 DEB", "group": "cosmos-2251-debris", "lat": -55.344104673191495, "lon": -137.58129627177155, "alt_km": 717.4685318789479, "timestamp": "2025-12-26T22:28:06.179252+00:00", "meta": {"OBJECT_NAME": "COSMOS 2251 DEB", "OBJECT_ID": "1993-036KY", "EPOCH": "2025-12-26T12:00:14.305248", "MEAN_MOTION": 14.31664332, "ECCENTRICITY": 0.0114466, "INCLINATION": 74.1802, "RA_OF_ASC_NODE": 18.9928, "ARG_OF_PERICENTER": 216.1466, "MEAN_ANOMALY": 295.7094, "EPHEMERIS_TYPE": 0, "CLASSIFICATION_TYPE": "U", "NORAD_CAT_ID": 34127, "ELEMENT_SET_NO": 999, "REV_AT_EPOCH": 86968, "BSTAR": 0.0015007, "MEAN_MOTION_DOT": 4.276e-05, "MEAN_MOTION_DDOT": 0}, "tle": {"line1": "1 34127U 93036KY  25360.50016557  .00004276  00000+0  15007-2 0  9996", "line2": "2 34127  74.1802  18.9928 0114466 216.1466 295.7094 14.31664332869682"}}, "geometry": {"type": "Point", "coordinates": [-137.58129627177155, -55.344104673191495]}}, {"type": "Feature", "properties": {"norad_id": 34128, "name": "COSMOS 2251 DEB", "group": "cosmos-2251-debris", "lat": 47.10386464744313, "lon": -74.26820314102756, "alt_km": 541.9952910283382, "timestamp": "2025-12-26T22:28:06.179262+00:00", "meta": {"OBJECT_NAME": "COSMOS 2251 DEB", "OBJECT_ID": "1993-036KZ", "EPOCH": "2025-12-26T11:50:27.936096", "MEAN_MOTION": 15.01683236, "ECCENTRICITY": 0.0026008, "INCLINATION": 73.998, "RA_OF_ASC_NODE": 268.6447, "ARG_OF_PERICENTER": 17.8492, "MEAN_ANOMALY": 158.8983, "EPHEMERIS_TYPE": 0, "CLASSIFICATION_TYPE": "U", "NORAD_CAT_ID": 34128, "ELEMENT_SET_NO": 999, "REV_AT_EPOCH": 89373, "BSTAR": 0.0013364, "MEAN_MOTION_DOT": 0.000175, "MEAN_MOTION_DDOT": 0}, "tle": {"line1": "1 34128U 93036KZ  25360.49337889  .00017500  00000+0  13364-2 0  9997", "line2": "2 34128  73.9980 268.6447 0026008  17.8492 158.8983 15.01683236893737"}}, "geometry": {"type": "Point", "coordinates": [-74.26820314102756, 47.10386464744313]}}, {"type": "Feature", "properties": {"norad_id": 34129, "name": "COSMOS 2251 DEB", "group": "cosmos-2251-debris", "lat": 70.32031437765745, "lon": 78.57491769298544, "alt_km": 627.6331043013915, "timestamp": "2025-12-26T22:28:06.179272+00:00", "meta": {"OBJECT_NAME": "COSMOS 2251 DEB", "OBJECT_ID": "1993-036LA", "EPOCH": "2025-12-26T07:22:19.005888", "MEAN_MOTION": 14.75988713, "ECCENTRICITY": 0.0033597, "INCLINATION": 74.0358, "RA_OF_ASC_NODE": 312.973, "ARG_OF_PERICENTER": 30.5542, "MEAN_ANOMALY": 329.758, "EPHEMERIS_TYPE": 0, "CLASSIFICATION_TYPE": "U", "NORAD_CAT_ID": 34129, "ELEMENT_SET_NO": 999, "REV_AT_EPOCH": 61498, "BSTAR": 0.0015495, "MEAN_MOTION_DOT": 0.00010749, "MEAN_MOTION_DDOT": 0}, "tle": {"line1": "1 34129U 93036LA  25360.30716442  .00010749  00000+0  15495-2 0  9999", "line2": "2 34129  74.0358 312.9730 0033597  30.5542 329.7580 14.75988713614984"}}, "geometry": {"type": "Point", "coordinates": [78.57491769298544, 70.32031437765745]}}, {"type": "Feature", "properties": {"norad_id": 34136, "name": "COSMOS 2251 DEB", "group": "cosmos-2251-debris", "lat": 62.12592066689037, "lon": 161.82485028416028, "alt_km": 566.6486637530488, "timestamp": "2025-12-26T22:28:06.179283+00:00", "meta": {"OBJECT_NAME": "COSMOS 2251 DEB", "OBJECT_ID": "1993-036LH", "EPOCH": "2025-12-26T11:16:59.568096", "MEAN_MOTION": 14.8016249, "ECCENTRICITY": 0.0084895, "INCLINATION": 74.02, "RA_OF_ASC_NODE": 15.5507, "ARG_OF_PERICENTER": 134.7343, "MEAN_ANOMALY": 16.3589, "EPHEMERIS_TYPE": 0, "CLASSIFICATION_TYPE": "U", "NORAD_CAT_ID": 34136, "ELEMENT_SET_NO": 999, "REV_AT_EPOCH": 90213, "BSTAR": 0.00036087, "MEAN_MOTION_DOT": 2.878e-05, "MEAN_MOTION_DDOT": 0}, "tle": {"line1": "1 34136U 93036LH  25360.47013389  .00002878  00000+0  36087-3 0  9990", "line2": "2 34136  74.0200  15.5507 0084895 134.7343  16.3589 14.80162490902136"}}, "geometry": {"type": "Point", "coordinates": [161.82485028416028, 62.12592066689037]}}, {"type": "Feature", "properties": {"norad_id": 34139, "name": "COSMOS 2251 DEB", "group": "cosmos-2251-debris", "lat": -22.55163641713048, "lon": 53.8309240851222, "alt_km": 701.7668989272215, "timestamp": "2025-12-26T22:28:06.179293+00:00", "meta": {"OBJECT_NAME": "COSMOS 2251 DEB", "OBJECT_ID": "1993-036LL", "EPOCH": "2025-12-26T16:51:33.031296", "MEAN_MOTION": 14.59239142, "ECCENTRICITY": 0.0042403, "INCLINATION": 74.0296, "RA_OF_ASC_NODE": 227.4464, "ARG_OF_PERICENTER": 296.2354, "MEAN_ANOMALY": 120.3771, "EPHEMERIS_TYPE": 0, "CLASSIFICATION_TYPE": "U", "NORAD_CAT_ID": 34139, "ELEMENT_SET_NO": 999, "REV_AT_EPOCH": 88353, "BSTAR": 0.0013266, "MEAN_MOTION_DOT": 6.315e-05, "MEAN_MOTION_DDOT": 0}, "tle": {"line1": "1 34139U 93036LL  25360.70246564  .00006315  00000+0  13266-2 0  9995", "line2": "2 34139  74.0296 227.4464 0042403 296.2354 120.3771 14.59239142883531"}}, "geometry": {"type": "Point", "coordinates": [53.8309240851222, -22.55163641713048]}}]}